NORAD_CAT_ID,OBJECT_NAME,OBJECT_TYPE,EPOCH,MEAN_MOTION,ECCENTRICITY,INCLINATION,RA_OF_ASC_NODE,ARG_OF_PERICENTER,MEAN_ANOMALY,BSTAR,MEAN_MOTION_DOT,MEAN_MOTION_DDOT,TLE_LINE0,TLE_LINE1,TLE_LINE2,SEMIMAJOR_AXIS,PERIOD,APOGEE,PERIGEE,DECAYED
52672.0,STARLINK-4073,PAYLOAD,2022-09-12 14:00:01,15.08814434,0.0001692,53.2162,113.8114,60.4081,247.9279,0.0020624,0.00032665,0.0,0 STARLINK-4073,1 52672U 22053S   22255.58334491  .00032665  00000-0  20624-2 0  9995,2 52672  53.2162 113.8114 0001692  60.4081 247.9279 15.08814434  1301,6917.959,95.439,540.994,538.653,0.0
52672.0,STARLINK-4073,PAYLOAD,2022-09-12 22:00:00,15.08826816,0.0001857,53.2161,112.3165,54.2624,265.6544,0.00065673,0.00010176,0.0,0 STARLINK-4073,1 52672U 22053S   22255.91667824  .00010176  00000-0  65673-3 0  9998,2 52672  53.2161 112.3165 0001857  54.2624 265.6544 15.08826816  1306,6917.920999999999,95.438,541.07,538.501,0.0
52672.0,STARLINK-4073,PAYLOAD,2022-09-13 06:00:00,15.08859334,0.0001769,53.2159,110.8194,53.2689,278.2228,-0.0023445,-0.00037427,0.0,0 STARLINK-4073,1 52672U 22053S   22256.25001157 -.00037427  00000-0 -23445-2 0  9997,2 52672  53.2159 110.8194 0001769  53.2689 278.2228 15.08859334 18364,6917.821,95.436,540.91,538.4630000000002,0.0
52672.0,STARLINK-4073,PAYLOAD,2022-09-13 14:00:01,15.08830763,0.0001678,53.2162,109.322,58.9917,284.1051,0.00060573,9.363e-05,0.0,0 STARLINK-4073,1 52672U 22053S   22256.58334491  .00009363  00000-0  60573-3 0  9993,2 52672  53.2162 109.3220 0001678  58.9917 284.1051 15.08830763  1307,6917.909000000002,95.438,540.934,538.613,0.0
52672.0,STARLINK-4073,PAYLOAD,2022-09-13 20:00:01,15.08835109,0.000175,53.2165,108.1974,54.088,207.7027,-0.00054679,-8.979e-05,0.0,0 STARLINK-4073,1 52672U 22053S   22256.83334491 -.00008979  00000-0 -54679-3 0  9995,2 52672  53.2165 108.1974 0001750  54.0880 207.7027 15.08835109 18457,6917.895,95.438,540.971,538.55,0.0
52672.0,STARLINK-4073,PAYLOAD,2022-09-13 22:00:00,15.08824245,0.0001844999999999,53.2163,107.8266,52.0225,302.6631,0.00082711,0.00012894,0.0,0 STARLINK-4073,1 52672U 22053S   22256.91667824  .00012894  00000-0  82711-3 0  9990,2 52672  53.2163 107.8266 0001845  52.0225 302.6631 15.08824245  1302,6917.929,95.439,541.07,538.5169999999998,0.0
52672.0,STARLINK-4073,PAYLOAD,2022-09-14 14:00:01,15.08846118,0.0001811999999999,53.2167,104.8327,59.1537,318.7021,-0.0013447,-0.00021629,0.0,0 STARLINK-4073,1 52672U 22053S   22257.58334491 -.00021629  00000-0 -13447-2 0  9992,2 52672  53.2167 104.8327 0001812  59.1537 318.7021 15.08846118  1303,6917.861999999999,95.437,540.98,538.4730000000002,0.0
52672.0,STARLINK-4073,PAYLOAD,2022-09-14 22:00:00,15.08814898,0.0002045999999999,53.2168,103.338,54.5408,334.9115,0.0010857,0.00017021,0.0,0 STARLINK-4073,1 52672U 22053S   22257.91667824  .00017021  00000-0  10857-2 0  9999,2 52672  53.2168 103.3380 0002046  54.5408 334.9115 15.08814898 18620,6917.956999999999,95.439,541.238,538.4069999999998,0.0
52672.0,STARLINK-4073,PAYLOAD,2022-09-15 14:00:01,15.08840696,0.0001921999999999,53.2174,100.3436,60.1606,352.4525,0.0013834,0.00021798,0.0,0 STARLINK-4073,1 52672U 22053S   22258.58334491  .00021798  00000-0  13834-2 0  9998,2 52672  53.2174 100.3436 0001922  60.1606 352.4525 15.08840696  1303,6917.878000000002,95.438,541.073,538.414,0.0
52672.0,STARLINK-4073,PAYLOAD,2022-09-15 16:00:00,15.08858034,0.0001949,53.2175,99.9699,58.9584,86.5509,-0.00077467,-0.00012602,0.0,0 STARLINK-4073,1 52672U 22053S   22258.66667824 -.00012602  00000-0 -77467-3 0  9995,2 52672  53.2175  99.9699 0001949  58.9584  86.5509 15.08858034 18734,6917.825,95.436,541.039,538.342,0.0
52672.0,STARLINK-4073,PAYLOAD,2022-09-16 13:36:52,15.08840488,0.0001744,53.2181,95.9268,56.7125,303.4034,3.3526e-05,2.46e-06,0.0,0 STARLINK-4073,1 52672U 22053S   22259.56727879  .00000246  00000-0  33526-4 0  9990,2 52672  53.2181  95.9268 0001744  56.7125 303.4034 15.08840488 18861,6917.879,95.438,540.95,538.5369999999998,0.0
52672.0,STARLINK-4073,PAYLOAD,2022-09-16 23:09:12,15.08833957,0.0001597,53.2197,94.1435,46.9693,313.1433,-2.989e-05,-7.64e-06,0.0,0 STARLINK-4073,1 52672U 22053S   22259.96472537 -.00000764  00000-0 -29890-4 0  9998,2 52672  53.2197  94.1435 0001597  46.9693 313.1433 15.08833957 18923,6917.899,95.438,540.869,538.659,0.0
52672.0,STARLINK-4073,PAYLOAD,2022-09-17 05:30:46,15.08820328,0.0003657,53.2161,92.9514,64.7263,295.4108,-5.7672e-05,-1.206e-05,0.0,0 STARLINK-4073,1 52672U 22053S   22260.22970592 -.00001206  00000-0 -57672-4 0  9994,2 52672  53.2161  92.9514 0003657  64.7263 295.4108 15.08820328 19399,6917.941,95.439,542.335,537.276,0.0
52672.0,STARLINK-4073,PAYLOAD,2022-09-17 18:13:51,15.08819733,0.0001559,53.2183,90.5727,83.3244,276.7926,-0.00013918,-2.501e-05,0.0,0 STARLINK-4073,1 52672U 22053S   22260.75962324 -.00002501  00000-0 -13918-3 0  9999,2 52672  53.2183  90.5727 0001559  83.3244 276.7926 15.08819733 19475,6917.941999999999,95.439,540.886,538.729,0.0
52672.0,STARLINK-4073,PAYLOAD,2022-09-17 23:00:00,15.08846589,0.0001103,53.2181,89.6802,48.8474,311.2613,-0.0002943,-4.969e-05,0.0,0 STARLINK-4073,1 52672U 22053S   22260.95834174 -.00004969  00000-0 -29430-3 0  9998,2 52672  53.2181  89.6802 0001103  48.8474 311.2613 15.08846589 19075,6917.86,95.437,540.488,538.962,0.0
52672.0,STARLINK-4073,PAYLOAD,2022-09-18 13:18:28,15.08848859,0.0001601,53.2181,87.0046,45.6254,314.4869,-0.0001508,-2.688e-05,0.0,0 STARLINK-4073,1 52672U 22053S   22261.55449227 -.00002688  00000-0 -15080-3 0  9998,2 52672  53.2181  87.0046 0001601  45.6254 314.4869 15.08848859 19598,6917.853,95.437,540.826,538.611,0.0
52672.0,STARLINK-4073,PAYLOAD,2022-09-18 19:40:00,15.08861201,0.0001658,53.2189,85.8178,54.8209,305.2939,-0.00024233,-4.145e-05,0.0,0 STARLINK-4073,1 52672U 22053S   22261.81944672 -.00004145  00000-0 -24233-3 0  9991,2 52672  53.2189  85.8178 0001658  54.8209 305.2939 15.08861201 19202,6917.816,95.436,540.828,538.534,0.0
52672.0,STARLINK-4073,PAYLOAD,2022-09-18 22:50:46,15.08840175,0.0001771,53.2187,85.2221,51.1445,308.9705,8.4802e-05,1.062e-05,0.0,0 STARLINK-4073,1 52672U 22053S   22261.95192936  .00001062  00000-0  84802-4 0  9996,2 52672  53.2187  85.2221 0001771  51.1445 308.9705 15.08840175 19221,6917.88,95.438,540.97,538.52,0.0
52672.0,STARLINK-4073,PAYLOAD,2022-09-19 13:09:14,15.08837909,0.0001757,53.218,82.546,44.1137,315.9995,0.00021912,3.201e-05,0.0,0 STARLINK-4073,1 52672U 22053S   22262.54808568  .00003201  00000-0  21912-3 0  9996,2 52672  53.2180  82.5460 0001757  44.1137 315.9995 15.08837909 19740,6917.887,95.438,540.967,538.536,0.0
52672.0,STARLINK-4073,PAYLOAD,2022-09-19 21:06:10,15.08842192,0.0001668,53.218,81.0594,52.7597,307.3547,0.00010867,1.442e-05,0.0,0 STARLINK-4073,1 52672U 22053S   22262.87928684  .00001442  00000-0  10867-3 0  9996,2 52672  53.2180  81.0594 0001668  52.7597 307.3547 15.08842192 19791,6917.874,95.437,540.893,538.585,0.0
52672.0,STARLINK-4073,PAYLOAD,2022-09-20 11:24:38,15.08841743,0.0001721999999999,53.2178,78.383,53.2551,306.8599,4.0993e-05,3.64e-06,0.0,0 STARLINK-4073,1 52672U 22053S   22263.47544873  .00000364  00000-0  40993-4 0  9993,2 52672  53.2178  78.3830 0001722  53.2551 306.8599 15.08841743 19889,6917.875,95.437,540.931,538.549,0.0
52672.0,STARLINK-4073,PAYLOAD,2022-09-20 19:21:33,15.08849325,0.0001774999999999,53.2188,76.896,56.1746,303.9415,4.0398e-05,3.55e-06,0.0,0 STARLINK-4073,1 52672U 22053S   22263.80664298  .00000355  00000-0  40398-4 0  9993,2 52672  53.2188  76.8960 0001775  56.1746 303.9415 15.08849325 19501,6917.852,95.437,540.945,538.489,0.0
52672.0,STARLINK-4073,PAYLOAD,2022-09-21 11:15:26,15.08838267,0.0001541999999999,53.2207,73.9235,50.2621,309.8506,-6.3971e-05,-1.306e-05,0.0,0 STARLINK-4073,1 52672U 22053S   22264.46905174 -.00001306  00000-0 -63971-4 0  9998,2 52672  53.2207  73.9235 0001542  50.2621 309.8506 15.08838267 19605,6917.886,95.438,540.817,538.684,0.0
52672.0,STARLINK-4073,PAYLOAD,2022-09-21 17:36:58,15.08843766,0.0001689,53.2191,72.7339,52.2026,307.9118,-3.48e-05,-8.42e-06,0.0,0 STARLINK-4073,1 52672U 22053S   22264.73400699 -.00000842  00000-0 -34800-4 0  9993,2 52672  53.2191  72.7339 0001689  52.2026 307.9118 15.08843766 19644,6917.869000000002,95.437,540.9019999999998,538.565,0.0
52672.0,STARLINK-4073,PAYLOAD,2022-09-22 09:30:49,15.08843945,0.0001652,53.2192,69.7605,51.9699,308.1443,5.3058e-05,5.57e-06,0.0,0 STARLINK-4073,1 52672U 22053S   22265.39640220  .00000557  00000-0  53058-4 0  9999,2 52672  53.2192  69.7605 0001652  51.9699 308.1443 15.08843945 20172,6917.868,95.437,540.876,538.59,0.0
52672.0,STARLINK-4073,PAYLOAD,2022-09-22 17:27:45,15.08843041,0.0001674,53.2206,68.2733,52.5681,307.5464,-3.5983000000000004e-05,-8.61e-06,0.0,0 STARLINK-4073,1 52672U 22053S   22265.72760684 -.00000861  00000-0 -35983-4 0  9990,2 52672  53.2206  68.2733 0001674  52.5681 307.5464 15.08843041 20225,6917.871,95.437,540.894,538.578,0.0
52672.0,STARLINK-4073,PAYLOAD,2022-09-23 18:53:55,15.08840761,0.0001649,53.2198,63.5153,58.7077,301.4076,8.4019e-05,1.049e-05,0.0,0 STARLINK-4073,1 52672U 22053S   22266.78744500  .00001049  00000-0  84019-4 0  9997,2 52672  53.2198  63.5153 0001649  58.7077 301.4076 15.08840761 19954,6917.878000000002,95.438,540.884,538.602,0.0
52672.0,STARLINK-4073,PAYLOAD,2022-09-24 17:09:18,15.08838502,0.0001481,53.2191,59.3532,46.4211,313.6904,8.0058e-05,9.86e-06,0.0,0 STARLINK-4073,1 52672U 22053S   22267.71480301  .00000986  00000-0  80058-4 0  9995,2 52672  53.2191  59.3532 0001481  46.4211 313.6904 15.08838502 20529,6917.885,95.438,540.775,538.725,0.0
52672.0,STARLINK-4073,PAYLOAD,2022-09-25 02:41:38,15.08836717,0.0001583,53.2188,57.5703,45.5705,314.5416,1.7912e-05,-3e-08,0.0,0 STARLINK-4073,1 52672U 22053S   22268.11224676 -.00000003  00000-0  17912-4 0  9991,2 52672  53.2188  57.5703 0001583  45.5705 314.5416 15.08836717 20159,6917.89,95.438,540.851,538.66,0.0
